[{"OBJECT_NAME":"ITASAT","OBJECT_ID":"2018-099AE","EPOCH":"2026-04-05T03:26:56.562144","MEAN_MOTION":15.1813563,"ECCENTRICITY":0.00113917,"INCLINATION":97.4109,"RA_OF_ASC_NODE":148.1347,"ARG_OF_PERICENTER":243.3251,"MEAN_ANOMALY":116.6817,"EPHEMERIS_TYPE":0,"CLASSIFICATION_TYPE":"U","NORAD_CAT_ID":43786,"ELEMENT_SET_NO":999,"REV_AT_EPOCH":40182,"BSTAR":0.00046479855,"MEAN_MOTION_DOT":9.44e-5,"MEAN_MOTION_DDOT":0},{"OBJECT_NAME":"EAGLET-I","OBJECT_ID":"2018-099AJ","EPOCH":"2026-04-05T02:07:03.294048","MEAN_MOTION":15.1238821,"ECCENTRICITY":0.00100688,"INCLINATION":97.4308,"RA_OF_ASC_NODE":146.6935,"ARG_OF_PERICENTER":233.3142,"MEAN_ANOMALY":126.7164,"EPHEMERIS_TYPE":0,"CLASSIFICATION_TYPE":"U","NORAD_CAT_ID":43790,"ELEMENT_SET_NO":999,"REV_AT_EPOCH":40128,"BSTAR":0.00039027495,"MEAN_MOTION_DOT":6.719e-5,"MEAN_MOTION_DDOT":0},{"OBJECT_NAME":"ESEO","OBJECT_ID":"2018-099AL","EPOCH":"2026-04-04T20:51:40.763520","MEAN_MOTION":15.04015879,"ECCENTRICITY":0.00113046,"INCLINATION":97.4037,"RA_OF_ASC_NODE":135.3771,"ARG_OF_PERICENTER":219.2215,"MEAN_ANOMALY":140.8193,"EPHEMERIS_TYPE":0,"CLASSIFICATION_TYPE":"U","NORAD_CAT_ID":43792,"ELEMENT_SET_NO":999,"REV_AT_EPOCH":40078,"BSTAR":0.00021937781,"MEAN_MOTION_DOT":2.978e-5,"MEAN_MOTION_DDOT":0},{"OBJECT_NAME":"THEA","OBJECT_ID":"2018-099AQ","EPOCH":"2026-04-05T03:09:48.828096","MEAN_MOTION":15.32592388,"ECCENTRICITY":0.00081833,"INCLINATION":97.4497,"RA_OF_ASC_NODE":164.2341,"ARG_OF_PERICENTER":175.5909,"MEAN_ANOMALY":184.5406,"EPHEMERIS_TYPE":0,"CLASSIFICATION_TYPE":"U","NORAD_CAT_ID":43796,"ELEMENT_SET_NO":999,"REV_AT_EPOCH":40149,"BSTAR":0.00074610247,"MEAN_MOTION_DOT":0.00023471,"MEAN_MOTION_DDOT":0},{"OBJECT_NAME":"ASTROCAST 0.1","OBJECT_ID":"2018-099AS","EPOCH":"2026-04-05T04:14:22.660224","MEAN_MOTION":15.45004917,"ECCENTRICITY":0.00064768,"INCLINATION":97.4416,"RA_OF_ASC_NODE":171.6515,"ARG_OF_PERICENTER":126.0604,"MEAN_ANOMALY":234.1245,"EPHEMERIS_TYPE":0,"CLASSIFICATION_TYPE":"U","NORAD_CAT_ID":43798,"ELEMENT_SET_NO":999,"REV_AT_EPOCH":40314,"BSTAR":0.0009004113,"MEAN_MOTION_DOT":0.00042572,"MEAN_MOTION_DDOT":0},{"OBJECT_NAME":"JY1SAT (JO-97)","OBJECT_ID":"2018-099AX","EPOCH":"2026-04-05T03:50:32.151840","MEAN_MOTION":15.31389189,"ECCENTRICITY":0.00067531,"INCLINATION":97.4195,"RA_OF_ASC_NODE":157.8469,"ARG_OF_PERICENTER":159.0119,"MEAN_ANOMALY":201.1401,"EPHEMERIS_TYPE":0,"CLASSIFICATION_TYPE":"U","NORAD_CAT_ID":43803,"ELEMENT_SET_NO":999,"REV_AT_EPOCH":40244,"BSTAR":0.00075054376,"MEAN_MOTION_DOT":0.00022732,"MEAN_MOTION_DDOT":0},{"OBJECT_NAME":"SUOMI-100","OBJECT_ID":"2018-099AY","EPOCH":"2026-04-05T02:27:03.527424","MEAN_MOTION":15.26805649,"ECCENTRICITY":0.00107972,"INCLINATION":97.4257,"RA_OF_ASC_NODE":155.8341,"ARG_OF_PERICENTER":170.9262,"MEAN_ANOMALY":189.2174,"EPHEMERIS_TYPE":0,"CLASSIFICATION_TYPE":"U","NORAD_CAT_ID":43804,"ELEMENT_SET_NO":999,"REV_AT_EPOCH":40226,"BSTAR":0.00061315227,"MEAN_MOTION_DOT":0.00016125,"MEAN_MOTION_DDOT":0},{"OBJECT_NAME":"AL-FARABI 2","OBJECT_ID":"2018-099AZ","EPOCH":"2026-04-05T04:54:59.682816","MEAN_MOTION":15.79926591,"ECCENTRICITY":0.00030377,"INCLINATION":97.4027,"RA_OF_ASC_NODE":172.7282,"ARG_OF_PERICENTER":206.9322,"MEAN_ANOMALY":153.1788,"EPHEMERIS_TYPE":0,"CLASSIFICATION_TYPE":"U","NORAD_CAT_ID":43805,"ELEMENT_SET_NO":999,"REV_AT_EPOCH":40352,"BSTAR":0.0017257218,"MEAN_MOTION_DOT":0.00329687,"MEAN_MOTION_DDOT":0},{"OBJECT_NAME":"CENTAURI-1","OBJECT_ID":"2018-099BD","EPOCH":"2026-04-05T03:17:57.324192","MEAN_MOTION":15.15621339,"ECCENTRICITY":0.00134702,"INCLINATION":97.4299,"RA_OF_ASC_NODE":148.4373,"ARG_OF_PERICENTER":216.0656,"MEAN_ANOMALY":143.9669,"EPHEMERIS_TYPE":0,"CLASSIFICATION_TYPE":"U","NORAD_CAT_ID":43809,"ELEMENT_SET_NO":999,"REV_AT_EPOCH":40143,"BSTAR":0.00041883323,"MEAN_MOTION_DOT":7.913e-5,"MEAN_MOTION_DDOT":0},{"OBJECT_NAME":"GLOBAL-2","OBJECT_ID":"2018-099BG","EPOCH":"2026-04-05T02:33:07.746624","MEAN_MOTION":15.08258747,"ECCENTRICITY":0.0007262,"INCLINATION":97.3642,"RA_OF_ASC_NODE":134.6513,"ARG_OF_PERICENTER":57.0832,"MEAN_ANOMALY":303.1094,"EPHEMERIS_TYPE":0,"CLASSIFICATION_TYPE":"U","NORAD_CAT_ID":43812,"ELEMENT_SET_NO":999,"REV_AT_EPOCH":40089,"BSTAR":0.00031032801,"MEAN_MOTION_DOT":4.751e-5,"MEAN_MOTION_DDOT":0},{"OBJECT_NAME":"SEAHAWK-1","OBJECT_ID":"2018-099BQ","EPOCH":"2026-04-05T02:27:41.880384","MEAN_MOTION":15.21613775,"ECCENTRICITY":0.00082332,"INCLINATION":97.4034,"RA_OF_ASC_NODE":148.7397,"ARG_OF_PERICENTER":195.2727,"MEAN_ANOMALY":164.8262,"EPHEMERIS_TYPE":0,"CLASSIFICATION_TYPE":"U","NORAD_CAT_ID":43820,"ELEMENT_SET_NO":999,"REV_AT_EPOCH":40141,"BSTAR":0.00056257706,"MEAN_MOTION_DOT":0.00012654,"MEAN_MOTION_DDOT":0},{"OBJECT_NAME":"SAUDISAT 5A","OBJECT_ID":"2018-102A","EPOCH":"2026-04-05T06:16:49.147680","MEAN_MOTION":15.27317906,"ECCENTRICITY":0.00106774,"INCLINATION":97.3131,"RA_OF_ASC_NODE":158.2629,"ARG_OF_PERICENTER":40.9969,"MEAN_ANOMALY":319.2071,"EPHEMERIS_TYPE":0,"CLASSIFICATION_TYPE":"U","NORAD_CAT_ID":43831,"ELEMENT_SET_NO":999,"REV_AT_EPOCH":40454,"BSTAR":0.0003166876,"MEAN_MOTION_DOT":8.416e-5,"MEAN_MOTION_DDOT":0},{"OBJECT_NAME":"SAUDISAT 5B","OBJECT_ID":"2018-102C","EPOCH":"2026-04-05T07:02:57.749280","MEAN_MOTION":15.27611869,"ECCENTRICITY":0.00114341,"INCLINATION":97.3231,"RA_OF_ASC_NODE":161.233,"ARG_OF_PERICENTER":42.5287,"MEAN_ANOMALY":317.6837,"EPHEMERIS_TYPE":0,"CLASSIFICATION_TYPE":"U","NORAD_CAT_ID":43833,"ELEMENT_SET_NO":999,"REV_AT_EPOCH":40466,"BSTAR":0.00027571824,"MEAN_MOTION_DOT":7.384e-5,"MEAN_MOTION_DDOT":0},{"OBJECT_NAME":"2018-102D","OBJECT_ID":"2018-102D","EPOCH":"2026-04-05T06:49:11.958816","MEAN_MOTION":15.58980137,"ECCENTRICITY":0.0003439,"INCLINATION":97.3453,"RA_OF_ASC_NODE":181.62,"ARG_OF_PERICENTER":330.7985,"MEAN_ANOMALY":29.3079,"EPHEMERIS_TYPE":0,"CLASSIFICATION_TYPE":"U","NORAD_CAT_ID":43834,"ELEMENT_SET_NO":999,"REV_AT_EPOCH":40586,"BSTAR":0.00083883588,"MEAN_MOTION_DOT":0.00065514,"MEAN_MOTION_DDOT":0},{"OBJECT_NAME":"ISAT","OBJECT_ID":"2018-111D","EPOCH":"2026-04-04T08:55:49.350144","MEAN_MOTION":15.54725126,"ECCENTRICITY":0.00056509,"INCLINATION":97.5906,"RA_OF_ASC_NODE":24.5877,"ARG_OF_PERICENTER":167.6435,"MEAN_ANOMALY":192.4958,"EPHEMERIS_TYPE":0,"CLASSIFICATION_TYPE":"U","NORAD_CAT_ID":43879,"ELEMENT_SET_NO":999,"REV_AT_EPOCH":39966,"BSTAR":0.0014673956,"MEAN_MOTION_DOT":0.00098406,"MEAN_MOTION_DDOT":0},{"OBJECT_NAME":"UWE-4","OBJECT_ID":"2018-111E","EPOCH":"2026-04-05T05:39:03.048480","MEAN_MOTION":15.41908824,"ECCENTRICITY":0.00068783,"INCLINATION":97.5857,"RA_OF_ASC_NODE":20.5234,"ARG_OF_PERICENTER":210.683,"MEAN_ANOMALY":149.4016,"EPHEMERIS_TYPE":0,"CLASSIFICATION_TYPE":"U","NORAD_CAT_ID":43880,"ELEMENT_SET_NO":999,"REV_AT_EPOCH":39952,"BSTAR":0.00090054265,"MEAN_MOTION_DOT":0.0003835,"MEAN_MOTION_DDOT":0}]
