ITASAT                  
1 43786U 18099AE  26095.14371021  .00009440  00000+0  46480-3 0  9997
2 43786  97.4109 148.1347 0011391 243.3251 116.6817 15.18135630401821
EAGLET-I                
1 43790U 18099AJ  26095.08823257  .00006719  00000+0  39027-3 0  9993
2 43790  97.4308 146.6935 0010068 233.3142 126.7164 15.12388210401286
ESEO                    
1 43792U 18099AL  26094.86922180  .00002978  00000+0  21938-3 0  9990
2 43792  97.4037 135.3771 0011304 219.2215 140.8193 15.04015879400780
THEA                    
1 43796U 18099AQ  26095.13181514  .00023471  00000+0  74610-3 0  9999
2 43796  97.4497 164.2341 0008183 175.5909 184.5406 15.32592388401490
ASTROCAST 0.1           
1 43798U 18099AS  26095.17665116  .00042572  00000+0  90041-3 0  9999
2 43798  97.4416 171.6515 0006476 126.0604 234.1245 15.45004917403141
JY1SAT (JO-97)          
1 43803U 18099AX  26095.16009435  .00022732  00000+0  75054-3 0  9994
2 43803  97.4195 157.8469 0006753 159.0119 201.1401 15.31389189402443
SUOMI-100               
1 43804U 18099AY  26095.10212416  .00016125  00000+0  61315-3 0  9998
2 43804  97.4257 155.8341 0010797 170.9262 189.2174 15.26805649402265
AL-FARABI 2             
1 43805U 18099AZ  26095.20485744  .00329687  00000+0  17257-2 0  9991
2 43805  97.4027 172.7282 0003037 206.9322 153.1788 15.79926591403528
CENTAURI-1              
1 43809U 18099BD  26095.13746903  .00007913  00000+0  41883-3 0  9992
2 43809  97.4299 148.4373 0013470 216.0656 143.9669 15.15621339401433
GLOBAL-2                
1 43812U 18099BG  26095.10633966  .00004751  00000+0  31033-3 0  9990
2 43812  97.3642 134.6513 0007262  57.0832 303.1094 15.08258747400894
SEAHAWK-1               
1 43820U 18099BQ  26095.10256806  .00012654  00000+0  56258-3 0  9990
2 43820  97.4034 148.7397 0008233 195.2727 164.8262 15.21613775401411
SAUDISAT 5A             
1 43831U 18102A   26095.26167995  .00008416  00000+0  31669-3 0  9994
2 43831  97.3131 158.2629 0010677  40.9969 319.2071 15.27317906404547
SAUDISAT 5B             
1 43833U 18102C   26095.29372395  .00007384  00000+0  27572-3 0  9992
2 43833  97.3231 161.2330 0011434  42.5287 317.6837 15.27611869404666
2018-102D               
1 43834U 18102D   26095.28416619  .00065514  00000+0  83884-3 0  9997
2 43834  97.3453 181.6200 0003439 330.7985  29.3079 15.58980137405867
ISAT                    
1 43879U 18111D   26094.37209896  .00098406  00000+0  14674-2 0  9998
2 43879  97.5906  24.5877 0005650 167.6435 192.4958 15.54725126399669
UWE-4                   
1 43880U 18111E   26095.23545195  .00038350  00000+0  90054-3 0  9990
2 43880  97.5857  20.5234 0006878 210.6830 149.4016 15.41908824399526
